[{"OBJECT_NAME":"ONEWEB-0171","OBJECT_ID":"2021-025AE","EPOCH":"2025-07-29T13:24:16.609248","MEAN_MOTION":13.13468971,"ECCENTRICITY":0.0001823,"INCLINATION":87.8968,"RA_OF_ASC_NODE":24.3452,"ARG_OF_PERICENTER":87.7579,"MEAN_ANOMALY":272.3758,"EPHEMERIS_TYPE":0,"CLASSIFICATION_TYPE":"U","NORAD_CAT_ID":48070,"ELEMENT_SET_NO":999,"REV_AT_EPOCH":21126,"BSTAR":0.0007738,"MEAN_MOTION_DOT":2.95e-6,"MEAN_MOTION_DDOT":0},{"OBJECT_NAME":"ONEWEB-0172","OBJECT_ID":"2021-025AF","EPOCH":"2025-07-29T20:13:48.402048","MEAN_MOTION":13.13470652,"ECCENTRICITY":0.0001769,"INCLINATION":87.8967,"RA_OF_ASC_NODE":24.255,"ARG_OF_PERICENTER":86.0738,"MEAN_ANOMALY":274.0594,"EPHEMERIS_TYPE":0,"CLASSIFICATION_TYPE":"U","NORAD_CAT_ID":48071,"ELEMENT_SET_NO":999,"REV_AT_EPOCH":21219,"BSTAR":0.00039182,"MEAN_MOTION_DOT":1.56e-6,"MEAN_MOTION_DDOT":0},{"OBJECT_NAME":"ONEWEB-0174","OBJECT_ID":"2021-025AG","EPOCH":"2025-07-29T12:28:11.291232","MEAN_MOTION":13.13468831,"ECCENTRICITY":0.0001667,"INCLINATION":87.8966,"RA_OF_ASC_NODE":24.3329,"ARG_OF_PERICENTER":94.1172,"MEAN_ANOMALY":266.0147,"EPHEMERIS_TYPE":0,"CLASSIFICATION_TYPE":"U","NORAD_CAT_ID":48072,"ELEMENT_SET_NO":999,"REV_AT_EPOCH":21147,"BSTAR":-0.0014912,"MEAN_MOTION_DOT":-5.32e-6,"MEAN_MOTION_DDOT":0},{"OBJECT_NAME":"ONEWEB-0175","OBJECT_ID":"2021-025AH","EPOCH":"2025-07-29T13:12:05.139936","MEAN_MOTION":13.13469214,"ECCENTRICITY":0.0002006,"INCLINATION":87.8959,"RA_OF_ASC_NODE":24.2919,"ARG_OF_PERICENTER":82.9893,"MEAN_ANOMALY":277.1465,"EPHEMERIS_TYPE":0,"CLASSIFICATION_TYPE":"U","NORAD_CAT_ID":48073,"ELEMENT_SET_NO":999,"REV_AT_EPOCH":21113,"BSTAR":0.0010918,"MEAN_MOTION_DOT":4.11e-6,"MEAN_MOTION_DDOT":0},{"OBJECT_NAME":"ONEWEB-0177","OBJECT_ID":"2021-025AJ","EPOCH":"2025-07-29T20:47:55.097088","MEAN_MOTION":13.13468908,"ECCENTRICITY":0.0001561,"INCLINATION":87.8969,"RA_OF_ASC_NODE":24.2436,"ARG_OF_PERICENTER":90.5598,"MEAN_ANOMALY":269.571,"EPHEMERIS_TYPE":0,"CLASSIFICATION_TYPE":"U","NORAD_CAT_ID":48074,"ELEMENT_SET_NO":999,"REV_AT_EPOCH":21136,"BSTAR":0.00059707,"MEAN_MOTION_DOT":2.31e-6,"MEAN_MOTION_DDOT":0},{"OBJECT_NAME":"ONEWEB-0178","OBJECT_ID":"2021-025AK","EPOCH":"2025-07-29T12:06:27.574848","MEAN_MOTION":13.13470552,"ECCENTRICITY":0.0001753,"INCLINATION":87.8969,"RA_OF_ASC_NODE":24.361,"ARG_OF_PERICENTER":81.1864,"MEAN_ANOMALY":278.9464,"EPHEMERIS_TYPE":0,"CLASSIFICATION_TYPE":"U","NORAD_CAT_ID":48075,"ELEMENT_SET_NO":999,"REV_AT_EPOCH":21136,"BSTAR":-0.00068438,"MEAN_MOTION_DOT":-2.37e-6,"MEAN_MOTION_DDOT":0},{"OBJECT_NAME":"ONEWEB-0108","OBJECT_ID":"2021-025AL","EPOCH":"2025-07-29T12:57:27.334944","MEAN_MOTION":13.13469753,"ECCENTRICITY":0.000188,"INCLINATION":87.8963,"RA_OF_ASC_NODE":24.3028,"ARG_OF_PERICENTER":98.0664,"MEAN_ANOMALY":262.0678,"EPHEMERIS_TYPE":0,"CLASSIFICATION_TYPE":"U","NORAD_CAT_ID":48076,"ELEMENT_SET_NO":999,"REV_AT_EPOCH":21129,"BSTAR":0.00078038,"MEAN_MOTION_DOT":2.98e-6,"MEAN_MOTION_DDOT":0},{"OBJECT_NAME":"ONEWEB-0169","OBJECT_ID":"2021-025AM","EPOCH":"2025-07-29T21:02:33.722016","MEAN_MOTION":13.13469251,"ECCENTRICITY":0.0001853,"INCLINATION":87.8968,"RA_OF_ASC_NODE":24.2573,"ARG_OF_PERICENTER":98.1499,"MEAN_ANOMALY":261.9841,"EPHEMERIS_TYPE":0,"CLASSIFICATION_TYPE":"U","NORAD_CAT_ID":48077,"ELEMENT_SET_NO":999,"REV_AT_EPOCH":21123,"BSTAR":0.00010378,"MEAN_MOTION_DOT":5.1e-7,"MEAN_MOTION_DDOT":0},{"OBJECT_NAME":"ONEWEB-0176","OBJECT_ID":"2021-031A","EPOCH":"2025-07-29T19:41:02.912640","MEAN_MOTION":13.14504523,"ECCENTRICITY":0.0001855,"INCLINATION":87.9063,"RA_OF_ASC_NODE":353.8471,"ARG_OF_PERICENTER":95.151,"MEAN_ANOMALY":264.9831,"EPHEMERIS_TYPE":0,"CLASSIFICATION_TYPE":"U","NORAD_CAT_ID":48210,"ELEMENT_SET_NO":999,"REV_AT_EPOCH":20725,"BSTAR":-0.00052008,"MEAN_MOTION_DOT":-1.8e-6,"MEAN_MOTION_DDOT":0},{"OBJECT_NAME":"ONEWEB-0184","OBJECT_ID":"2021-031B","EPOCH":"2025-07-29T20:51:49.927104","MEAN_MOTION":13.14501512,"ECCENTRICITY":0.0002184,"INCLINATION":87.9068,"RA_OF_ASC_NODE":353.8065,"ARG_OF_PERICENTER":72.6212,"MEAN_ANOMALY":287.5156,"EPHEMERIS_TYPE":0,"CLASSIFICATION_TYPE":"U","NORAD_CAT_ID":48211,"ELEMENT_SET_NO":999,"REV_AT_EPOCH":20594,"BSTAR":-8.8416e-5,"MEAN_MOTION_DOT":-2.0e-7,"MEAN_MOTION_DDOT":0},{"OBJECT_NAME":"ONEWEB-0179","OBJECT_ID":"2021-031C","EPOCH":"2025-07-29T20:09:34.807680","MEAN_MOTION":13.14502504,"ECCENTRICITY":0.0001721,"INCLINATION":87.9066,"RA_OF_ASC_NODE":353.8304,"ARG_OF_PERICENTER":97.5733,"MEAN_ANOMALY":262.5592,"EPHEMERIS_TYPE":0,"CLASSIFICATION_TYPE":"U","NORAD_CAT_ID":48212,"ELEMENT_SET_NO":999,"REV_AT_EPOCH":20598,"BSTAR":0.00042076,"MEAN_MOTION_DOT":1.69e-6,"MEAN_MOTION_DDOT":0},{"OBJECT_NAME":"ONEWEB-0180","OBJECT_ID":"2021-031D","EPOCH":"2025-07-29T20:56:24.494208","MEAN_MOTION":13.14494775,"ECCENTRICITY":0.0001595,"INCLINATION":87.9066,"RA_OF_ASC_NODE":353.811,"ARG_OF_PERICENTER":88.516,"MEAN_ANOMALY":271.6153,"EPHEMERIS_TYPE":0,"CLASSIFICATION_TYPE":"U","NORAD_CAT_ID":48213,"ELEMENT_SET_NO":999,"REV_AT_EPOCH":20587,"BSTAR":-0.0025782,"MEAN_MOTION_DOT":-9.43e-6,"MEAN_MOTION_DDOT":0},{"OBJECT_NAME":"ONEWEB-0218","OBJECT_ID":"2021-031E","EPOCH":"2025-07-29T10:30:42.560640","MEAN_MOTION":13.145043,"ECCENTRICITY":0.0001979,"INCLINATION":87.9064,"RA_OF_ASC_NODE":353.898,"ARG_OF_PERICENTER":67.7358,"MEAN_ANOMALY":292.3981,"EPHEMERIS_TYPE":0,"CLASSIFICATION_TYPE":"U","NORAD_CAT_ID":48214,"ELEMENT_SET_NO":999,"REV_AT_EPOCH":20597,"BSTAR":-0.00025894,"MEAN_MOTION_DOT":-8.3e-7,"MEAN_MOTION_DDOT":0},{"OBJECT_NAME":"ONEWEB-0209","OBJECT_ID":"2021-031F","EPOCH":"2025-07-29T10:14:42.959904","MEAN_MOTION":13.14504211,"ECCENTRICITY":0.0001635,"INCLINATION":87.9067,"RA_OF_ASC_NODE":353.9441,"ARG_OF_PERICENTER":96.7611,"MEAN_ANOMALY":263.3705,"EPHEMERIS_TYPE":0,"CLASSIFICATION_TYPE":"U","NORAD_CAT_ID":48215,"ELEMENT_SET_NO":999,"REV_AT_EPOCH":20597,"BSTAR":-0.00052489,"MEAN_MOTION_DOT":-1.82e-6,"MEAN_MOTION_DDOT":0},{"OBJECT_NAME":"ONEWEB-0198","OBJECT_ID":"2021-031G","EPOCH":"2025-07-29T20:49:32.138112","MEAN_MOTION":13.1449911,"ECCENTRICITY":0.0001561,"INCLINATION":87.9066,"RA_OF_ASC_NODE":353.8579,"ARG_OF_PERICENTER":81.952,"MEAN_ANOMALY":278.1786,"EPHEMERIS_TYPE":0,"CLASSIFICATION_TYPE":"U","NORAD_CAT_ID":48216,"ELEMENT_SET_NO":999,"REV_AT_EPOCH":20612,"BSTAR":-4.1606e-5,"MEAN_MOTION_DOT":-3.0e-8,"MEAN_MOTION_DDOT":0},{"OBJECT_NAME":"ONEWEB-0189","OBJECT_ID":"2021-031H","EPOCH":"2025-07-29T10:10:09.396768","MEAN_MOTION":13.14501996,"ECCENTRICITY":0.000164,"INCLINATION":87.9064,"RA_OF_ASC_NODE":353.9196,"ARG_OF_PERICENTER":84.4606,"MEAN_ANOMALY":275.6711,"EPHEMERIS_TYPE":0,"CLASSIFICATION_TYPE":"U","NORAD_CAT_ID":48217,"ELEMENT_SET_NO":999,"REV_AT_EPOCH":20582,"BSTAR":-0.00039546,"MEAN_MOTION_DOT":-1.34e-6,"MEAN_MOTION_DDOT":0},{"OBJECT_NAME":"ONEWEB-0196","OBJECT_ID":"2021-031J","EPOCH":"2025-07-29T20:35:50.500032","MEAN_MOTION":13.14503903,"ECCENTRICITY":0.0001781,"INCLINATION":87.9071,"RA_OF_ASC_NODE":353.8457,"ARG_OF_PERICENTER":93.5733,"MEAN_ANOMALY":266.56,"EPHEMERIS_TYPE":0,"CLASSIFICATION_TYPE":"U","NORAD_CAT_ID":48218,"ELEMENT_SET_NO":999,"REV_AT_EPOCH":20587,"BSTAR":0.0003916,"MEAN_MOTION_DOT":1.58e-6,"MEAN_MOTION_DDOT":0}]
