ONEWEB-0171             
1 48070U 21025AE  25210.55852557  .00000295  00000+0  77380-3 0  9994
2 48070  87.8968  24.3452 0001823  87.7579 272.3758 13.13468971211263
ONEWEB-0172             
1 48071U 21025AF  25210.84292132  .00000156  00000+0  39182-3 0  9998
2 48071  87.8967  24.2550 0001769  86.0738 274.0594 13.13470652212198
ONEWEB-0174             
1 48072U 21025AG  25210.51957513 -.00000532  00000+0 -14912-2 0  9997
2 48072  87.8966  24.3329 0001667  94.1172 266.0147 13.13468831211473
ONEWEB-0175             
1 48073U 21025AH  25210.55005949  .00000411  00000+0  10918-2 0  9995
2 48073  87.8959  24.2919 0002006  82.9893 277.1465 13.13469214211138
ONEWEB-0177             
1 48074U 21025AJ  25210.86660992  .00000231  00000+0  59707-3 0  9995
2 48074  87.8969  24.2436 0001561  90.5598 269.5710 13.13468908211368
ONEWEB-0178             
1 48075U 21025AK  25210.50448582 -.00000237  00000+0 -68438-3 0  9995
2 48075  87.8969  24.3610 0001753  81.1864 278.9464 13.13470552211367
ONEWEB-0108             
1 48076U 21025AL  25210.53989971  .00000298  00000+0  78038-3 0  9993
2 48076  87.8963  24.3028 0001880  98.0664 262.0678 13.13469753211295
ONEWEB-0169             
1 48077U 21025AM  25210.87677919  .00000051  00000+0  10378-3 0  9997
2 48077  87.8968  24.2573 0001853  98.1499 261.9841 13.13469251211239
ONEWEB-0176             
1 48210U 21031A   25210.82017260 -.00000180  00000+0 -52008-3 0  9996
2 48210  87.9063 353.8471 0001855  95.1510 264.9831 13.14504523207258
ONEWEB-0184             
1 48211U 21031B   25210.86932786 -.00000020  00000+0 -88416-4 0  9996
2 48211  87.9068 353.8065 0002184  72.6212 287.5156 13.14501512205948
ONEWEB-0179             
1 48212U 21031C   25210.83998620  .00000169  00000+0  42076-3 0  9996
2 48212  87.9066 353.8304 0001721  97.5733 262.5592 13.14502504205986
ONEWEB-0180             
1 48213U 21031D   25210.87250572 -.00000943  00000+0 -25782-2 0  9994
2 48213  87.9066 353.8110 0001595  88.5160 271.6153 13.14494775205877
ONEWEB-0218             
1 48214U 21031E   25210.43799260 -.00000083  00000+0 -25894-3 0  9999
2 48214  87.9064 353.8980 0001979  67.7358 292.3981 13.14504300205971
ONEWEB-0209             
1 48215U 21031F   25210.42688611 -.00000182  00000+0 -52489-3 0  9996
2 48215  87.9067 353.9441 0001635  96.7611 263.3705 13.14504211205974
ONEWEB-0198             
1 48216U 21031G   25210.86773308 -.00000003  00000+0 -41606-4 0  9995
2 48216  87.9066 353.8579 0001561  81.9520 278.1786 13.14499110206120
ONEWEB-0189             
1 48217U 21031H   25210.42371987 -.00000134  00000+0 -39546-3 0  9999
2 48217  87.9064 353.9196 0001640  84.4606 275.6711 13.14501996205828
ONEWEB-0196             
1 48218U 21031J   25210.85822338  .00000158  00000+0  39160-3 0  9994
2 48218  87.9071 353.8457 0001781  93.5733 266.5600 13.14503903205875
